{"type":"FeatureCollection","features":[{"type":"Feature","properties":{"Zip":80808},"geometry":null},{"type":"Feature","properties":{"Zip":80809},"geometry":null},{"type":"Feature","properties":{"Zip":80901},"geometry":null},{"type":"Feature","properties":{"Zip":80902},"geometry":null},{"type":"Feature","properties":{"Zip":80903},"geometry":null},{"type":"Feature","properties":{"Zip":80904},"geometry":null},{"type":"Feature","properties":{"Zip":80905},"geometry":null},{"type":"Feature","properties":{"Zip":80906},"geometry":null},{"type":"Feature","properties":{"Zip":80907},"geometry":null},{"type":"Feature","properties":{"Zip":80908},"geometry":null},{"type":"Feature","properties":{"Zip":80909},"geometry":null},{"type":"Feature","properties":{"Zip":80910},"geometry":null},{"type":"Feature","properties":{"Zip":80911},"geometry":null},{"type":"Feature","properties":{"Zip":80912},"geometry":null},{"type":"Feature","properties":{"Zip":80913},"geometry":null},{"type":"Feature","properties":{"Zip":80914},"geometry":null},{"type":"Feature","properties":{"Zip":80915},"geometry":null},{"type":"Feature","properties":{"Zip":80916},"geometry":null},{"type":"Feature","properties":{"Zip":80917},"geometry":null},{"type":"Feature","properties":{"Zip":80918},"geometry":null},{"type":"Feature","properties":{"Zip":80919},"geometry":null},{"type":"Feature","properties":{"Zip":80920},"geometry":null},{"type":"Feature","properties":{"Zip":80921},"geometry":null},{"type":"Feature","properties":{"Zip":80922},"geometry":null},{"type":"Feature","properties":{"Zip":80923},"geometry":null},{"type":"Feature","properties":{"Zip":80924},"geometry":null},{"type":"Feature","properties":{"Zip":80925},"geometry":null},{"type":"Feature","properties":{"Zip":80926},"geometry":null},{"type":"Feature","properties":{"Zip":80927},"geometry":null},{"type":"Feature","properties":{"Zip":80928},"geometry":null},{"type":"Feature","properties":{"Zip":80929},"geometry":null},{"type":"Feature","properties":{"Zip":80930},"geometry":null},{"type":"Feature","properties":{"Zip":80931},"geometry":null},{"type":"Feature","properties":{"Zip":80932},"geometry":null},{"type":"Feature","properties":{"Zip":80933},"geometry":null},{"type":"Feature","properties":{"Zip":80934},"geometry":null},{"type":"Feature","properties":{"Zip":80935},"geometry":null},{"type":"Feature","properties":{"Zip":80936},"geometry":null},{"type":"Feature","properties":{"Zip":80937},"geometry":null},{"type":"Feature","properties":{"Zip":80938},"geometry":null},{"type":"Feature","properties":{"Zip":80939},"geometry":null},{"type":"Feature","properties":{"Zip":80949},"geometry":null},{"type":"Feature","properties":{"Zip":80951},"geometry":null},{"type":"Feature","properties":{"Zip":80960},"geometry":null},{"type":"Feature","properties":{"Zip":80962},"geometry":null},{"type":"Feature","properties":{"Zip":80970},"geometry":null},{"type":"Feature","properties":{"Zip":80106},"geometry":null},{"type":"Feature","properties":{"Zip":80817},"geometry":null},{"type":"Feature","properties":{"Zip":80819},"geometry":null},{"type":"Feature","properties":{"Zip":80829},"geometry":null},{"type":"Feature","properties":{"Zip":80132},"geometry":null},{"type":"Feature","properties":{"Zip":80133},"geometry":null},{"type":"Feature","properties":{"Zip":80831},"geometry":null},{"type":"Feature","properties":{"Zip":80832},"geometry":null},{"type":"Feature","properties":{"Zip":80833},"geometry":null},{"type":"Feature","properties":{"Zip":80840},"geometry":null},{"type":"Feature","properties":{"Zip":80841},"geometry":null},{"type":"Feature","properties":{"Zip":80864},"geometry":null},{"type":"Feature","properties":{},"geometry":{"coordinates":[[-104.92925021270288,39.00687292232391],[-104.91125595492196,39.07451732483119],[-104.68668761781757,39.06334089988147],[-104.4815530791164,39.06334089988147],[-104.49162986347382,38.96603134561093],[-104.57152436802058,38.8383196800867],[-104.64853979132229,38.75698008563765],[-104.67877014439405,38.72217206844158],[-104.86231157375809,38.74013961514768],[-105.03145759689792,38.86466500196721],[-105.06888565308205,38.95819602179327],[-105.03361690783132,38.99736397503111],[-104.96307941733086,39.033714815381416],[-104.92996998301403,39.00743223236313]],"type":"LineString"}},{"type":"Feature","properties":{"Zip":80808},"geometry":null},{"type":"Feature","properties":{"Zip":80809},"geometry":null},{"type":"Feature","properties":{"Zip":80901},"geometry":null},{"type":"Feature","properties":{"Zip":80902},"geometry":null},{"type":"Feature","properties":{"Zip":80903},"geometry":null},{"type":"Feature","properties":{"Zip":80904},"geometry":null},{"type":"Feature","properties":{"Zip":80905},"geometry":null},{"type":"Feature","properties":{"Zip":80906},"geometry":null},{"type":"Feature","properties":{"Zip":80907},"geometry":null},{"type":"Feature","properties":{"Zip":80908},"geometry":null},{"type":"Feature","properties":{"Zip":80909},"geometry":null},{"type":"Feature","properties":{"Zip":80910},"geometry":null},{"type":"Feature","properties":{"Zip":80911},"geometry":null},{"type":"Feature","properties":{"Zip":80912},"geometry":null},{"type":"Feature","properties":{"Zip":80913},"geometry":null},{"type":"Feature","properties":{"Zip":80914},"geometry":null},{"type":"Feature","properties":{"Zip":80915},"geometry":null},{"type":"Feature","properties":{"Zip":80916},"geometry":null},{"type":"Feature","properties":{"Zip":80917},"geometry":null},{"type":"Feature","properties":{"Zip":80918},"geometry":null},{"type":"Feature","properties":{"Zip":80919},"geometry":null},{"type":"Feature","properties":{"Zip":80920},"geometry":null},{"type":"Feature","properties":{"Zip":80921},"geometry":null},{"type":"Feature","properties":{"Zip":80922},"geometry":null},{"type":"Feature","properties":{"Zip":80923},"geometry":null},{"type":"Feature","properties":{"Zip":80924},"geometry":null},{"type":"Feature","properties":{"Zip":80925},"geometry":null},{"type":"Feature","properties":{"Zip":80926},"geometry":null},{"type":"Feature","properties":{"Zip":80927},"geometry":null},{"type":"Feature","properties":{"Zip":80928},"geometry":null},{"type":"Feature","properties":{"Zip":80929},"geometry":null},{"type":"Feature","properties":{"Zip":80930},"geometry":null},{"type":"Feature","properties":{"Zip":80931},"geometry":null},{"type":"Feature","properties":{"Zip":80932},"geometry":null},{"type":"Feature","properties":{"Zip":80933},"geometry":null},{"type":"Feature","properties":{"Zip":80934},"geometry":null},{"type":"Feature","properties":{"Zip":80935},"geometry":null},{"type":"Feature","properties":{"Zip":80936},"geometry":null},{"type":"Feature","properties":{"Zip":80937},"geometry":null},{"type":"Feature","properties":{"Zip":80938},"geometry":null},{"type":"Feature","properties":{"Zip":80939},"geometry":null},{"type":"Feature","properties":{"Zip":80949},"geometry":null},{"type":"Feature","properties":{"Zip":80951},"geometry":null},{"type":"Feature","properties":{"Zip":80960},"geometry":null},{"type":"Feature","properties":{"Zip":80962},"geometry":null},{"type":"Feature","properties":{"Zip":80970},"geometry":null},{"type":"Feature","properties":{"Zip":80106},"geometry":null},{"type":"Feature","properties":{"Zip":80817},"geometry":null},{"type":"Feature","properties":{"Zip":80819},"geometry":null},{"type":"Feature","properties":{"Zip":80829},"geometry":null},{"type":"Feature","properties":{"Zip":80132},"geometry":null},{"type":"Feature","properties":{"Zip":80133},"geometry":null},{"type":"Feature","properties":{"Zip":80831},"geometry":null},{"type":"Feature","properties":{"Zip":80832},"geometry":null},{"type":"Feature","properties":{"Zip":80833},"geometry":null},{"type":"Feature","properties":{"Zip":80840},"geometry":null},{"type":"Feature","properties":{"Zip":80841},"geometry":null},{"type":"Feature","properties":{"Zip":80864},"geometry":null}]}